ONEWEB-0229             
1 48779U 21045N   24328.17544214  .00000078  00000+0  17313-3 0  9996
2 48779  87.9087  12.8716 0001949  92.0886 268.0468 13.15546891169336
ONEWEB-0228             
1 48780U 21045P   24328.66426683  .00000107  00000+0  24923-3 0  9999
2 48780  87.9086  12.7541 0001873  94.3573 265.7771 13.15546061169314
ONEWEB-0232             
1 48781U 21045Q   24329.55238552 -.00000128  00000+0 -37470-3 0  9991
2 48781  87.9078  12.5841 0001897  96.1411 263.9935 13.15548011170876
ONEWEB-0231             
1 48782U 21045R   24328.61752893 -.00000103  00000+0 -30735-3 0  9997
2 48782  87.9099  12.8243 0001857  86.3377 273.7965 13.15546199169322
ONEWEB-0234             
1 48783U 21045S   24329.55002514  .00000016  00000+0  79997-5 0  9996
2 48783  87.9086  12.5855 0001363 137.0531 223.0705 13.15546942170714
ONEWEB-0238             
1 48784U 21045T   24328.66742997  .00000103  00000+0  24087-3 0  9999
2 48784  87.9093  12.7773 0001732  99.1581 260.9746 13.15547503169365
ONEWEB-0240             
1 48785U 21045U   24329.58963166  .00000155  00000+0  37754-3 0  9997
2 48785  87.9088  12.5612 0001537  87.6374 272.4932 13.15545378170630
ONEWEB-0246             
1 48786U 21045V   24328.59534051  .00000098  00000+0  22722-3 0  9990
2 48786  87.9089  12.7654 0001933  89.6331 270.5020 13.15546292169254
